start=new Date('2022-11-09T00:00:00.000Z').valueOf();
sats=[{"CENTER_NAME":"EARTH","REF_FRAME":"TEME","COUNTRY_CODE":"US","DECAY_DATE":null,"ECCENTRICITY":"0.00019200","MEAN_ANOMALY":"319.1800","MEAN_MOTION_DDOT":"0.0000000000000","TIME_SYSTEM":"UTC","SEMIMAJOR_AXIS":"6925.314","MEAN_ELEMENT_THEORY":"SGP4","EPHEMERIS_TYPE":"0","BSTAR":"0.00026288000000","PERIOD":"95.591","PERIAPSIS":"545.850","NORAD_CAT_ID":"47878","RA_OF_ASC_NODE":"334.6495","LAUNCH_DATE":"2021-03-14","MEAN_MOTION":"15.06411126","MEAN_MOTION_DOT":"0.00003637","GP_ID":"217201701","FILE":"3649076","INCLINATION":"53.0559","TLE_LINE1":"1 47878U 21021U   22312.75659458  .00003637  00000-0  26288-3 0  9997","REV_AT_EPOCH":"9256","TLE_LINE2":"2 47878  53.0559 334.6495 0001920  40.9332 319.1800 15.06411126 92561","ELEMENT_SET_NO":"999","OBJECT_TYPE":"PAYLOAD","OBJECT_ID":"2021-021U","APOAPSIS":"548.509","ARG_OF_PERICENTER":"40.9332","OBJECT_NAME":"STARLINK-2335","CLASSIFICATION_TYPE":"U","EPOCH":"2022-11-08T18:09:29.771712","SITE":"AFETR","RCS_SIZE":"LARGE"},{"TLE_LINE2":"2 47879  53.0550 351.4536 0001611  59.1097 301.0051 15.06406142 92675","INCLINATION":"53.0550","TLE_LINE1":"1 47879U 21021V   22312.35529545  .00003073  00000-0  22506-3 0  9990","REV_AT_EPOCH":"9267","FILE":"3648805","GP_ID":"217169682","SITE":"AFETR","EPOCH":"2022-11-08T08:31:37.526880","OBJECT_NAME":"STARLINK-2336","CLASSIFICATION_TYPE":"U","RCS_SIZE":"LARGE","ELEMENT_SET_NO":"999","OBJECT_TYPE":"PAYLOAD","ARG_OF_PERICENTER":"59.1097","APOAPSIS":"548.310","OBJECT_ID":"2021-021V","MEAN_ANOMALY":"301.0051","ECCENTRICITY":"0.00016110","DECAY_DATE":null,"COUNTRY_CODE":"US","REF_FRAME":"TEME","CENTER_NAME":"EARTH","LAUNCH_DATE":"2021-03-14","RA_OF_ASC_NODE":"351.4536","NORAD_CAT_ID":"47879","PERIAPSIS":"546.079","MEAN_MOTION_DOT":"0.00003073","MEAN_MOTION":"15.06406142","TIME_SYSTEM":"UTC","SEMIMAJOR_AXIS":"6925.330","MEAN_MOTION_DDOT":"0.0000000000000","PERIOD":"95.592","BSTAR":"0.00022506000000","EPHEMERIS_TYPE":"0","MEAN_ELEMENT_THEORY":"SGP4"},{"CENTER_NAME":"EARTH","REF_FRAME":"TEME","ECCENTRICITY":"0.00020350","DECAY_DATE":null,"COUNTRY_CODE":"US","MEAN_ANOMALY":"313.5127","MEAN_ELEMENT_THEORY":"SGP4","EPHEMERIS_TYPE":"0","BSTAR":"0.00090776000000","PERIOD":"95.590","MEAN_MOTION_DDOT":"0.0000000000000","SEMIMAJOR_AXIS":"6925.240","TIME_SYSTEM":"UTC","MEAN_MOTION":"15.06435403","MEAN_MOTION_DOT":"0.00013278","PERIAPSIS":"545.696","NORAD_CAT_ID":"47880","RA_OF_ASC_NODE":"344.4912","LAUNCH_DATE":"2021-03-14","GP_ID":"217200223","FILE":"3649076","INCLINATION":"53.0545","TLE_LINE1":"1 47880U 21021W   22312.79253820  .00013278  00000-0  90776-3 0  9992","REV_AT_EPOCH":"9263","TLE_LINE2":"2 47880  53.0545 344.4912 0002035  46.6031 313.5127 15.06435403 92631","OBJECT_ID":"2021-021W","APOAPSIS":"548.514","ARG_OF_PERICENTER":"46.6031","ELEMENT_SET_NO":"999","OBJECT_TYPE":"PAYLOAD","RCS_SIZE":"LARGE","EPOCH":"2022-11-08T19:01:15.300480","OBJECT_NAME":"STARLINK-2337","CLASSIFICATION_TYPE":"U","SITE":"AFETR"},{"MEAN_MOTION":"15.06419711","MEAN_MOTION_DOT":"0.00006798","PERIAPSIS":"545.977","NORAD_CAT_ID":"47881","RA_OF_ASC_NODE":"345.5514","LAUNCH_DATE":"2021-03-14","MEAN_ELEMENT_THEORY":"SGP4","BSTAR":"0.00047455000000","EPHEMERIS_TYPE":"0","PERIOD":"95.591","MEAN_MOTION_DDOT":"0.0000000000000","TIME_SYSTEM":"UTC","SEMIMAJOR_AXIS":"6925.288","DECAY_DATE":null,"ECCENTRICITY":"0.00016980","COUNTRY_CODE":"US","MEAN_ANOMALY":"300.5417","CENTER_NAME":"EARTH","REF_FRAME":"TEME","RCS_SIZE":"LARGE","CLASSIFICATION_TYPE":"U","OBJECT_NAME":"STARLINK-2339","EPOCH":"2022-11-08T13:16:15.610944","SITE":"AFETR","OBJECT_ID":"2021-021X","APOAPSIS":"548.329","ARG_OF_PERICENTER":"59.5739","ELEMENT_SET_NO":"999","OBJECT_TYPE":"PAYLOAD","TLE_LINE2":"2 47881  53.0542 345.5514 0001698  59.5739 300.5417 15.06419711 92565","GP_ID":"217201468","FILE":"3649076","INCLINATION":"53.0542","TLE_LINE1":"1 47881U 21021X   22312.55295846  .00006798  00000-0  47455-3 0  9996","REV_AT_EPOCH":"9256"},{"GP_ID":"217201208","TLE_LINE1":"1 47882U 21021Y   22312.79346296  .00006117  00000-0  42899-3 0  9991","INCLINATION":"53.0527","REV_AT_EPOCH":"9294","FILE":"3649076","TLE_LINE2":"2 47882  53.0527 334.4920 0001657  61.1826 298.9330 15.06417689 92946","APOAPSIS":"548.307","OBJECT_ID":"2021-021Y","ARG_OF_PERICENTER":"61.1826","ELEMENT_SET_NO":"999","OBJECT_TYPE":"PAYLOAD","RCS_SIZE":"LARGE","SITE":"AFETR","OBJECT_NAME":"STARLINK-2340","EPOCH":"2022-11-08T19:02:35.199744","CLASSIFICATION_TYPE":"U","CENTER_NAME":"EARTH","REF_FRAME":"TEME","MEAN_ANOMALY":"298.9330","COUNTRY_CODE":"US","DECAY_DATE":null,"ECCENTRICITY":"0.00016570","MEAN_ELEMENT_THEORY":"SGP4","PERIOD":"95.591","EPHEMERIS_TYPE":"0","BSTAR":"0.00042899000000","MEAN_MOTION_DDOT":"0.0000000000000","TIME_SYSTEM":"UTC","SEMIMAJOR_AXIS":"6925.294","MEAN_MOTION_DOT":"0.00006117","MEAN_MOTION":"15.06417689","NORAD_CAT_ID":"47882","PERIAPSIS":"546.012","LAUNCH_DATE":"2021-03-14","RA_OF_ASC_NODE":"334.4920"},{"OBJECT_ID":"2021-021Z","APOAPSIS":"548.400","ARG_OF_PERICENTER":"49.7252","OBJECT_TYPE":"PAYLOAD","ELEMENT_SET_NO":"999","RCS_SIZE":"LARGE","OBJECT_NAME":"STARLINK-2342","EPOCH":"2022-11-08T08:48:53.159616","CLASSIFICATION_TYPE":"U","SITE":"AFETR","GP_ID":"217169182","FILE":"3648805","TLE_LINE1":"1 47883U 21021Z   22312.36728194  .00016096  00000-0  10965-2 0  9991","REV_AT_EPOCH":"9281","INCLINATION":"53.0554","TLE_LINE2":"2 47883  53.0554 341.3993 0001791  49.7252 310.3893 15.06417476 92811","MEAN_ELEMENT_THEORY":"SGP4","BSTAR":"0.00109650000000","EPHEMERIS_TYPE":"0","PERIOD":"95.591","MEAN_MOTION_DDOT":"0.0000000000000","SEMIMAJOR_AXIS":"6925.295","TIME_SYSTEM":"UTC","MEAN_MOTION":"15.06417476","MEAN_MOTION_DOT":"0.00016096","PERIAPSIS":"545.920","NORAD_CAT_ID":"47883","RA_OF_ASC_NODE":"341.3993","LAUNCH_DATE":"2021-03-14","CENTER_NAME":"EARTH","REF_FRAME":"TEME","COUNTRY_CODE":"US","DECAY_DATE":null,"ECCENTRICITY":"0.00017910","MEAN_ANOMALY":"310.3893"},{"RCS_SIZE":"LARGE","SITE":"AFETR","CLASSIFICATION_TYPE":"U","OBJECT_NAME":"STARLINK-2343","EPOCH":"2022-11-08T08:24:19.993824","APOAPSIS":"548.441","OBJECT_ID":"2021-021AA","ARG_OF_PERICENTER":"61.5114","OBJECT_TYPE":"PAYLOAD","ELEMENT_SET_NO":"999","TLE_LINE2":"2 47884  53.0550 346.4820 0001810  61.5114 298.6057 15.06408506 92560","GP_ID":"217169432","INCLINATION":"53.0550","TLE_LINE1":"1 47884U 21021AA  22312.35023141  .00003114  00000-0  22784-3 0  9991","REV_AT_EPOCH":"9256","FILE":"3648805","MEAN_MOTION_DOT":"0.00003114","MEAN_MOTION":"15.06408506","NORAD_CAT_ID":"47884","PERIAPSIS":"545.934","LAUNCH_DATE":"2021-03-14","RA_OF_ASC_NODE":"346.4820","MEAN_ELEMENT_THEORY":"SGP4","PERIOD":"95.592","EPHEMERIS_TYPE":"0","BSTAR":"0.00022784000000","MEAN_MOTION_DDOT":"0.0000000000000","TIME_SYSTEM":"UTC","SEMIMAJOR_AXIS":"6925.322","MEAN_ANOMALY":"298.6057","DECAY_DATE":null,"ECCENTRICITY":"0.00018100","COUNTRY_CODE":"US","CENTER_NAME":"EARTH","REF_FRAME":"TEME"},{"CENTER_NAME":"EARTH","REF_FRAME":"TEME","DECAY_DATE":null,"ECCENTRICITY":"0.00015440","COUNTRY_CODE":"US","MEAN_ANOMALY":"298.7221","MEAN_ELEMENT_THEORY":"SGP4","BSTAR":"0.00043146000000","EPHEMERIS_TYPE":"0","PERIOD":"95.591","MEAN_MOTION_DDOT":"0.0000000000000","SEMIMAJOR_AXIS":"6925.313","TIME_SYSTEM":"UTC","MEAN_MOTION":"15.06411602","MEAN_MOTION_DOT":"0.00006153","PERIAPSIS":"546.109","NORAD_CAT_ID":"47885","RA_OF_ASC_NODE":"351.2055","LAUNCH_DATE":"2021-03-14","GP_ID":"217170682","FILE":"3648805","TLE_LINE1":"1 47885U 21021AB  22312.41059160  .00006153  00000-0  43146-3 0  9990","REV_AT_EPOCH":"9266","INCLINATION":"53.0549","TLE_LINE2":"2 47885  53.0549 351.2055 0001544  61.3923 298.7221 15.06411602 92669","OBJECT_ID":"2021-021AB","APOAPSIS":"548.247","ARG_OF_PERICENTER":"61.3923","ELEMENT_SET_NO":"999","OBJECT_TYPE":"PAYLOAD","RCS_SIZE":"LARGE","OBJECT_NAME":"STARLINK-2344","EPOCH":"2022-11-08T09:51:15.114240","CLASSIFICATION_TYPE":"U","SITE":"AFETR"},{"REF_FRAME":"TEME","CENTER_NAME":"EARTH","DECAY_DATE":null,"COUNTRY_CODE":"US","ECCENTRICITY":"0.00029090","MEAN_ANOMALY":"290.1195","BSTAR":"0.00155440000000","EPHEMERIS_TYPE":"0","PERIOD":"95.523","MEAN_ELEMENT_THEORY":"SGP4","SEMIMAJOR_AXIS":"6922.009","TIME_SYSTEM":"UTC","MEAN_MOTION_DDOT":"0.0000000000000","MEAN_MOTION":"15.07490230","MEAN_MOTION_DOT":"0.00023644","RA_OF_ASC_NODE":"339.3718","LAUNCH_DATE":"2021-03-14","PERIAPSIS":"541.861","NORAD_CAT_ID":"47886","FILE":"3649076","REV_AT_EPOCH":"9271","TLE_LINE1":"1 47886U 21021AC  22312.80028417  .00023644  00000-0  15544-2 0  9999","INCLINATION":"53.0540","GP_ID":"217201702","TLE_LINE2":"2 47886  53.0540 339.3718 0002909  70.0108 290.1195 15.07490230 92719","ARG_OF_PERICENTER":"70.0108","OBJECT_ID":"2021-021AC","APOAPSIS":"545.888","ELEMENT_SET_NO":"999","OBJECT_TYPE":"PAYLOAD","RCS_SIZE":"LARGE","EPOCH":"2022-11-08T19:12:24.552288","CLASSIFICATION_TYPE":"U","OBJECT_NAME":"STARLINK-2345","SITE":"AFETR"},{"TLE_LINE2":"2 47887  53.0592 346.3786 0001842  66.5881 293.5301 15.06413654 92094","FILE":"3648704","INCLINATION":"53.0592","TLE_LINE1":"1 47887U 21021AD  22312.36865726  .00001395  00000-0  11249-3 0  9991","REV_AT_EPOCH":"9209","GP_ID":"217146209","OBJECT_NAME":"STARLINK-2346","EPOCH":"2022-11-08T08:50:51.987264","CLASSIFICATION_TYPE":"U","SITE":"AFETR","RCS_SIZE":"LARGE","ELEMENT_SET_NO":"999","OBJECT_TYPE":"PAYLOAD","ARG_OF_PERICENTER":"66.5881","OBJECT_ID":"2021-021AD","APOAPSIS":"548.447","COUNTRY_CODE":"US","DECAY_DATE":null,"ECCENTRICITY":"0.00018420","MEAN_ANOMALY":"293.5301","REF_FRAME":"TEME","CENTER_NAME":"EARTH","RA_OF_ASC_NODE":"346.3786","LAUNCH_DATE":"2021-03-14","PERIAPSIS":"545.896","NORAD_CAT_ID":"47887","MEAN_MOTION":"15.06413654","MEAN_MOTION_DOT":"0.00001395","SEMIMAJOR_AXIS":"6925.307","TIME_SYSTEM":"UTC","MEAN_MOTION_DDOT":"0.0000000000000","EPHEMERIS_TYPE":"0","BSTAR":"0.00011249000000","PERIOD":"95.591","MEAN_ELEMENT_THEORY":"SGP4"}];
